0 THORAD AGENA D DEB
1 05392U 70025KX  13282.00900760  .00000915  00000-0  65131-3 0  8376
2 05392 100.0502 041.3496 0053033 133.1493 288.5541 13.99843142194386
0 THORAD AGENA D DEB
1 05392U 70025KX  13283.28919199  .00000892  00000-0  63589-3 0  8383
2 05392 100.0503 042.7542 0052979 129.8365 259.8574 13.99846838194564
0 THORAD AGENA D DEB
1 05392U 70025KX  13285.81714017  .00000816  00000-0  58479-3 0  8407
2 05392 100.0506 045.5280 0052838 123.3030 039.1125 13.99850588194916
0 THORAD AGENA D DEB
1 05392U 70025KX  13286.88203277  .00000902  00000-0  64248-3 0  8414
2 05392 100.0509 046.6965 0052806 120.5275 005.5345 13.99852507195067
0 THORAD AGENA D DEB
1 05392U 70025KX  13288.29241183  .00001203  00000-0  84534-3 0  8425
2 05392 100.0511 048.2440 0052743 116.8558 273.0090 13.99856356195265
0 THORAD AGENA D DEB
1 05392U 70025KX  13289.29299676  .00000963  00000-0  68357-3 0  8434
2 05392 100.0510 049.3422 0052663 114.2588 275.3670 13.99859913195409
0 THORAD AGENA D DEB
1 05392U 70025KX  13290.29365866  .00001027  00000-0  72657-3 0  8442
2 05392 100.0510 050.4404 0052593 111.6499 278.1367 13.99861942195540
0 THORAD AGENA D DEB
1 05392U 70025KX  13291.29905979  .00001008  00000-0  71409-3 0  8452
2 05392 100.0511 051.5435 0052445 109.0339 304.7911 13.99863510195686
0 THORAD AGENA D DEB
1 05392U 70025KX  13292.29976681  .00001073  00000-0  75749-3 0  8465
2 05392 100.0510 052.6417 0052392 106.4174 307.8120 13.99865841195827
0 THORAD AGENA D DEB
1 05392U 70025KX  13293.30034331  .00001162  00000-0  81708-3 0  8477
2 05392 100.0508 053.7398 0052320 103.7931 310.1926 13.99868710195960
0 THORAD AGENA D DEB
1 05392U 70025KX  13294.30091672  .00001133  00000-0  79771-3 0  8485
2 05392 100.0507 054.8376 0052233 101.1662 312.5649 13.99870892196102
0 THORAD AGENA D DEB
1 05392U 70025KX  13295.30167053  .00001095  00000-0  77253-3 0  8494
2 05392 100.0505 055.9358 0052151 098.5472 315.8471 13.99873022196241
